[{"OBJECT_NAME":"STARLINK-6028","OBJECT_ID":"2023-078BD","EPOCH":"2026-03-09T21:12:15.545664","MEAN_MOTION":14.98325669,"ECCENTRICITY":0.00027686,"INCLINATION":69.9992,"RA_OF_ASC_NODE":343.7857,"ARG_OF_PERICENTER":205.7559,"MEAN_ANOMALY":154.3463,"EPHEMERIS_TYPE":0,"CLASSIFICATION_TYPE":"U","NORAD_CAT_ID":56818,"ELEMENT_SET_NO":999,"REV_AT_EPOCH":15340,"BSTAR":0.0002752239,"MEAN_MOTION_DOT":3.192e-5,"MEAN_MOTION_DDOT":0},{"OBJECT_NAME":"CZ-6A DEB","OBJECT_ID":"2022-151CZ","EPOCH":"2026-03-09T17:45:53.210880","MEAN_MOTION":14.74921147,"ECCENTRICITY":0.01056164,"INCLINATION":98.7155,"RA_OF_ASC_NODE":150.3002,"ARG_OF_PERICENTER":236.2203,"MEAN_ANOMALY":122.891,"EPHEMERIS_TYPE":0,"CLASSIFICATION_TYPE":"U","NORAD_CAT_ID":54354,"ELEMENT_SET_NO":999,"REV_AT_EPOCH":17564,"BSTAR":0.0025923668,"MEAN_MOTION_DOT":0.00019034,"MEAN_MOTION_DDOT":0}]
